<?xml version="1.0" encoding="UTF-8"?>
<ndm xmlns:xsi="http://www.w3.org/2001/XMLSchema-instance" xsi:noNamespaceSchemaLocation="https://sanaregistry.org/r/ndmxml_unqualified/ndmxml-2.0.0-master-2.0.xsd">
<omm id="CCSDS_OMM_VERS" version="2.0">
<header><CREATION_DATE/><ORIGINATOR/></header><body><segment><metadata><OBJECT_NAME>ORBCOMM FM37</OBJECT_NAME><OBJECT_ID>2008-031E</OBJECT_ID><CENTER_NAME>EARTH</CENTER_NAME><REF_FRAME>TEME</REF_FRAME><TIME_SYSTEM>UTC</TIME_SYSTEM><MEAN_ELEMENT_THEORY>SGP4</MEAN_ELEMENT_THEORY></metadata><data><meanElements><EPOCH>2024-06-29T20:06:17.207424</EPOCH><MEAN_MOTION>14.76727491</MEAN_MOTION><ECCENTRICITY>.0006676</ECCENTRICITY><INCLINATION>48.4387</INCLINATION><RA_OF_ASC_NODE>215.0942</RA_OF_ASC_NODE><ARG_OF_PERICENTER>305.8277</ARG_OF_PERICENTER><MEAN_ANOMALY>224.5468</MEAN_ANOMALY></meanElements><tleParameters><EPHEMERIS_TYPE>0</EPHEMERIS_TYPE><CLASSIFICATION_TYPE>U</CLASSIFICATION_TYPE><NORAD_CAT_ID>33064</NORAD_CAT_ID><ELEMENT_SET_NO>999</ELEMENT_SET_NO><REV_AT_EPOCH>86191</REV_AT_EPOCH><BSTAR>.4068E-3</BSTAR><MEAN_MOTION_DOT>.2673E-4</MEAN_MOTION_DOT><MEAN_MOTION_DDOT>0</MEAN_MOTION_DDOT></tleParameters></data></segment></body></omm>
<omm id="CCSDS_OMM_VERS" version="2.0">
<header><CREATION_DATE/><ORIGINATOR/></header><body><segment><metadata><OBJECT_NAME>ORBCOMM FM40</OBJECT_NAME><OBJECT_ID>2008-031F</OBJECT_ID><CENTER_NAME>EARTH</CENTER_NAME><REF_FRAME>TEME</REF_FRAME><TIME_SYSTEM>UTC</TIME_SYSTEM><MEAN_ELEMENT_THEORY>SGP4</MEAN_ELEMENT_THEORY></metadata><data><meanElements><EPOCH>2024-06-29T18:54:31.580064</EPOCH><MEAN_MOTION>14.78116215</MEAN_MOTION><ECCENTRICITY>.0007937</ECCENTRICITY><INCLINATION>48.4407</INCLINATION><RA_OF_ASC_NODE>204.2048</RA_OF_ASC_NODE><ARG_OF_PERICENTER>315.4218</ARG_OF_PERICENTER><MEAN_ANOMALY>215.3604</MEAN_ANOMALY></meanElements><tleParameters><EPHEMERIS_TYPE>0</EPHEMERIS_TYPE><CLASSIFICATION_TYPE>U</CLASSIFICATION_TYPE><NORAD_CAT_ID>33065</NORAD_CAT_ID><ELEMENT_SET_NO>999</ELEMENT_SET_NO><REV_AT_EPOCH>86195</REV_AT_EPOCH><BSTAR>.55859E-3</BSTAR><MEAN_MOTION_DOT>.3879E-4</MEAN_MOTION_DOT><MEAN_MOTION_DDOT>0</MEAN_MOTION_DDOT></tleParameters></data></segment></body></omm>
<omm id="CCSDS_OMM_VERS" version="2.0">
<header><CREATION_DATE/><ORIGINATOR/></header><body><segment><metadata><OBJECT_NAME>VESSELSAT 1</OBJECT_NAME><OBJECT_ID>2011-058C</OBJECT_ID><CENTER_NAME>EARTH</CENTER_NAME><REF_FRAME>TEME</REF_FRAME><TIME_SYSTEM>UTC</TIME_SYSTEM><MEAN_ELEMENT_THEORY>SGP4</MEAN_ELEMENT_THEORY></metadata><data><meanElements><EPOCH>2024-06-29T16:56:24.570816</EPOCH><MEAN_MOTION>14.11169752</MEAN_MOTION><ECCENTRICITY>.0013594</ECCENTRICITY><INCLINATION>19.9629</INCLINATION><RA_OF_ASC_NODE>66.4690</RA_OF_ASC_NODE><ARG_OF_PERICENTER>269.4647</ARG_OF_PERICENTER><MEAN_ANOMALY>90.4199</MEAN_ANOMALY></meanElements><tleParameters><EPHEMERIS_TYPE>0</EPHEMERIS_TYPE><CLASSIFICATION_TYPE>U</CLASSIFICATION_TYPE><NORAD_CAT_ID>37840</NORAD_CAT_ID><ELEMENT_SET_NO>999</ELEMENT_SET_NO><REV_AT_EPOCH>65645</REV_AT_EPOCH><BSTAR>.10349E-3</BSTAR><MEAN_MOTION_DOT>.454E-5</MEAN_MOTION_DOT><MEAN_MOTION_DDOT>0</MEAN_MOTION_DDOT></tleParameters></data></segment></body></omm>
<omm id="CCSDS_OMM_VERS" version="2.0">
<header><CREATION_DATE/><ORIGINATOR/></header><body><segment><metadata><OBJECT_NAME>ORBCOMM FM109</OBJECT_NAME><OBJECT_ID>2014-040A</OBJECT_ID><CENTER_NAME>EARTH</CENTER_NAME><REF_FRAME>TEME</REF_FRAME><TIME_SYSTEM>UTC</TIME_SYSTEM><MEAN_ELEMENT_THEORY>SGP4</MEAN_ELEMENT_THEORY></metadata><data><meanElements><EPOCH>2024-06-29T20:25:30.474624</EPOCH><MEAN_MOTION>14.56776721</MEAN_MOTION><ECCENTRICITY>.0001268</ECCENTRICITY><INCLINATION>47.0030</INCLINATION><RA_OF_ASC_NODE>238.7062</RA_OF_ASC_NODE><ARG_OF_PERICENTER>177.9786</ARG_OF_PERICENTER><MEAN_ANOMALY>182.1104</MEAN_ANOMALY></meanElements><tleParameters><EPHEMERIS_TYPE>0</EPHEMERIS_TYPE><CLASSIFICATION_TYPE>U</CLASSIFICATION_TYPE><NORAD_CAT_ID>40086</NORAD_CAT_ID><ELEMENT_SET_NO>999</ELEMENT_SET_NO><REV_AT_EPOCH>52966</REV_AT_EPOCH><BSTAR>.31806E-3</BSTAR><MEAN_MOTION_DOT>.1269E-4</MEAN_MOTION_DOT><MEAN_MOTION_DDOT>0</MEAN_MOTION_DDOT></tleParameters></data></segment></body></omm>
<omm id="CCSDS_OMM_VERS" version="2.0">
<header><CREATION_DATE/><ORIGINATOR/></header><body><segment><metadata><OBJECT_NAME>ORBCOMM FM107</OBJECT_NAME><OBJECT_ID>2014-040B</OBJECT_ID><CENTER_NAME>EARTH</CENTER_NAME><REF_FRAME>TEME</REF_FRAME><TIME_SYSTEM>UTC</TIME_SYSTEM><MEAN_ELEMENT_THEORY>SGP4</MEAN_ELEMENT_THEORY></metadata><data><meanElements><EPOCH>2024-06-29T21:14:18.044448</EPOCH><MEAN_MOTION>14.56788147</MEAN_MOTION><ECCENTRICITY>.0000229</ECCENTRICITY><INCLINATION>47.0048</INCLINATION><RA_OF_ASC_NODE>239.5166</RA_OF_ASC_NODE><ARG_OF_PERICENTER>131.7777</ARG_OF_PERICENTER><MEAN_ANOMALY>228.3127</MEAN_ANOMALY></meanElements><tleParameters><EPHEMERIS_TYPE>0</EPHEMERIS_TYPE><CLASSIFICATION_TYPE>U</CLASSIFICATION_TYPE><NORAD_CAT_ID>40087</NORAD_CAT_ID><ELEMENT_SET_NO>999</ELEMENT_SET_NO><REV_AT_EPOCH>52974</REV_AT_EPOCH><BSTAR>.32485E-3</BSTAR><MEAN_MOTION_DOT>.13E-4</MEAN_MOTION_DOT><MEAN_MOTION_DDOT>0</MEAN_MOTION_DDOT></tleParameters></data></segment></body></omm>
<omm id="CCSDS_OMM_VERS" version="2.0">
<header><CREATION_DATE/><ORIGINATOR/></header><body><segment><metadata><OBJECT_NAME>ORBCOMM FM106</OBJECT_NAME><OBJECT_ID>2014-040C</OBJECT_ID><CENTER_NAME>EARTH</CENTER_NAME><REF_FRAME>TEME</REF_FRAME><TIME_SYSTEM>UTC</TIME_SYSTEM><MEAN_ELEMENT_THEORY>SGP4</MEAN_ELEMENT_THEORY></metadata><data><meanElements><EPOCH>2024-06-29T20:36:34.641792</EPOCH><MEAN_MOTION>14.67234605</MEAN_MOTION><ECCENTRICITY>.0018087</ECCENTRICITY><INCLINATION>47.0605</INCLINATION><RA_OF_ASC_NODE>89.0386</RA_OF_ASC_NODE><ARG_OF_PERICENTER>232.0449</ARG_OF_PERICENTER><MEAN_ANOMALY>127.8808</MEAN_ANOMALY></meanElements><tleParameters><EPHEMERIS_TYPE>0</EPHEMERIS_TYPE><CLASSIFICATION_TYPE>U</CLASSIFICATION_TYPE><NORAD_CAT_ID>40088</NORAD_CAT_ID><ELEMENT_SET_NO>999</ELEMENT_SET_NO><REV_AT_EPOCH>53169</REV_AT_EPOCH><BSTAR>.43853E-3</BSTAR><MEAN_MOTION_DOT>.2316E-4</MEAN_MOTION_DOT><MEAN_MOTION_DDOT>0</MEAN_MOTION_DDOT></tleParameters></data></segment></body></omm>
<omm id="CCSDS_OMM_VERS" version="2.0">
<header><CREATION_DATE/><ORIGINATOR/></header><body><segment><metadata><OBJECT_NAME>ORBCOMM FM111</OBJECT_NAME><OBJECT_ID>2014-040D</OBJECT_ID><CENTER_NAME>EARTH</CENTER_NAME><REF_FRAME>TEME</REF_FRAME><TIME_SYSTEM>UTC</TIME_SYSTEM><MEAN_ELEMENT_THEORY>SGP4</MEAN_ELEMENT_THEORY></metadata><data><meanElements><EPOCH>2024-06-29T18:55:13.567872</EPOCH><MEAN_MOTION>14.82129443</MEAN_MOTION><ECCENTRICITY>.0033471</ECCENTRICITY><INCLINATION>47.0052</INCLINATION><RA_OF_ASC_NODE>344.4165</RA_OF_ASC_NODE><ARG_OF_PERICENTER>307.4690</ARG_OF_PERICENTER><MEAN_ANOMALY>52.3163</MEAN_ANOMALY></meanElements><tleParameters><EPHEMERIS_TYPE>0</EPHEMERIS_TYPE><CLASSIFICATION_TYPE>U</CLASSIFICATION_TYPE><NORAD_CAT_ID>40089</NORAD_CAT_ID><ELEMENT_SET_NO>999</ELEMENT_SET_NO><REV_AT_EPOCH>53787</REV_AT_EPOCH><BSTAR>.6272E-3</BSTAR><MEAN_MOTION_DOT>.4888E-4</MEAN_MOTION_DOT><MEAN_MOTION_DDOT>0</MEAN_MOTION_DDOT></tleParameters></data></segment></body></omm>
<omm id="CCSDS_OMM_VERS" version="2.0">
<header><CREATION_DATE/><ORIGINATOR/></header><body><segment><metadata><OBJECT_NAME>ORBCOMM FM104</OBJECT_NAME><OBJECT_ID>2014-040E</OBJECT_ID><CENTER_NAME>EARTH</CENTER_NAME><REF_FRAME>TEME</REF_FRAME><TIME_SYSTEM>UTC</TIME_SYSTEM><MEAN_ELEMENT_THEORY>SGP4</MEAN_ELEMENT_THEORY></metadata><data><meanElements><EPOCH>2024-06-29T13:33:25.819488</EPOCH><MEAN_MOTION>14.55262160</MEAN_MOTION><ECCENTRICITY>.001634</ECCENTRICITY><INCLINATION>47.0056</INCLINATION><RA_OF_ASC_NODE>270.5035</RA_OF_ASC_NODE><ARG_OF_PERICENTER>31.5430</ARG_OF_PERICENTER><MEAN_ANOMALY>328.6431</MEAN_ANOMALY></meanElements><tleParameters><EPHEMERIS_TYPE>0</EPHEMERIS_TYPE><CLASSIFICATION_TYPE>U</CLASSIFICATION_TYPE><NORAD_CAT_ID>40090</NORAD_CAT_ID><ELEMENT_SET_NO>999</ELEMENT_SET_NO><REV_AT_EPOCH>52923</REV_AT_EPOCH><BSTAR>.34064E-3</BSTAR><MEAN_MOTION_DOT>.1323E-4</MEAN_MOTION_DOT><MEAN_MOTION_DDOT>0</MEAN_MOTION_DDOT></tleParameters></data></segment></body></omm>

</ndm>
