ORBCOMM FM37            
1 33064U 08031E   24181.83769916  .00002673  00000+0  40680-3 0  9991
2 33064  48.4387 215.0942 0006676 305.8277 224.5468 14.76727491861916
ORBCOMM FM40            
1 33065U 08031F   24181.78786551  .00003879  00000+0  55859-3 0  9993
2 33065  48.4407 204.2048 0007937 315.4218 215.3604 14.78116215861952
VESSELSAT 1             
1 37840U 11058C   24181.70583994  .00000454  00000+0  10349-3 0  9990
2 37840  19.9629  66.4690 0013594 269.4647  90.4199 14.11169752656456
ORBCOMM FM109           
1 40086U 14040A   24181.85104716  .00001269  00000+0  31806-3 0  9993
2 40086  47.0030 238.7062 0001268 177.9786 182.1104 14.56776721529665
ORBCOMM FM107           
1 40087U 14040B   24181.88493107  .00001300  00000+0  32485-3 0  9992
2 40087  47.0048 239.5166 0000229 131.7777 228.3127 14.56788147529745
ORBCOMM FM106           
1 40088U 14040C   24181.85873428  .00002316  00000+0  43853-3 0  9997
2 40088  47.0605  89.0386 0018087 232.0449 127.8808 14.67234605531692
ORBCOMM FM111           
1 40089U 14040D   24181.78835148  .00004888  00000+0  62720-3 0  9997
2 40089  47.0052 344.4165 0033471 307.4690  52.3163 14.82129443537873
ORBCOMM FM104           
1 40090U 14040E   24181.56488217  .00001323  00000+0  34064-3 0  9997
2 40090  47.0056 270.5035 0016340  31.5430 328.6431 14.55262160529239
